ONEWEB-0393             
1 50473U 21132E   24049.88221272 -.00000036  00000+0 -12372-3 0  9997
2 50473  87.9259 174.7600 0001268 112.1347 247.9920 13.19249606106261
ONEWEB-0394             
1 50474U 21132F   24049.81217281  .00000133  00000+0  30563-3 0  9994
2 50474  87.9234 144.5060 0001857 111.3049 248.8281 13.18685553109654
ONEWEB-0396             
1 50476U 21132H   24049.80584756 -.00000019  00000+0 -80733-4 0  9999
2 50476  87.9238 144.4998 0001966 112.6765 247.4576 13.18685226109692
ONEWEB-0397             
1 50477U 21132J   24049.82007456  .00000025  00000+0  29555-4 0  9999
2 50477  87.9239 144.4979 0001966 113.7969 246.3370 13.18686101109672
ONEWEB-0398             
1 50478U 21132K   24049.95188232 -.00000517  00000+0 -14958-2 0  9993
2 50478  87.9004 189.8991 0001100 106.6881 253.4367 13.11417441104306
ONEWEB-0399             
1 50479U 21132L   24049.93727830 -.00000171  00000+0 -51744-3 0  9996
2 50479  87.9003 189.9165 0001980 109.8008 250.3333 13.11416385104295
